NORAD_CAT_ID,OBJECT_NAME,OBJECT_TYPE,EPOCH,MEAN_MOTION,ECCENTRICITY,INCLINATION,RA_OF_ASC_NODE,ARG_OF_PERICENTER,MEAN_ANOMALY,BSTAR,MEAN_MOTION_DOT,MEAN_MOTION_DDOT,TLE_LINE0,TLE_LINE1,TLE_LINE2,SEMIMAJOR_AXIS,PERIOD,APOGEE,PERIGEE,DECAYED
53997.0,STARLINK-5130,PAYLOAD,2023-09-23 10:25:38,15.08847296,0.000155,53.2162,276.7727,89.0587,271.0583,8.2014e-05,1.018e-05,0.0,0 STARLINK-5130,1 53997U 22125AK  23266.43447800  .00001018  00000-0  82014-4 0  9993,2 53997  53.2162 276.7727 0001550  89.0587 271.0583 15.08847296 53992,6917.858,95.437,540.795,538.651,0.0
53997.0,STARLINK-5130,PAYLOAD,2023-09-24 00:44:07,15.08838184,0.0001526,53.216,274.0982,83.3819,276.7346,-3.9223e-05,-9.12e-06,0.0,0 STARLINK-5130,1 53997U 22125AK  23267.03064722 -.00000912  00000-0 -39223-4 0  9996,2 53997  53.2160 274.0982 0001526  83.3819 276.7346 15.08838184 54156,6917.886,95.438,540.807,538.695,0.0
53997.0,STARLINK-5130,PAYLOAD,2023-09-24 07:05:40,15.08842126,0.0001484,53.2161,272.9074,92.7921,267.3241,-1.4949e-05,-5.26e-06,0.0,0 STARLINK-5130,1 53997U 22125AK  23267.29560342 -.00000526  00000-0 -14949-4 0  9992,2 53997  53.2161 272.9074 0001484  92.7921 267.3241 15.08842126 54125,6917.874,95.437,540.766,538.712,0.0
53997.0,STARLINK-5130,PAYLOAD,2023-09-25 06:56:26,15.08845164,0.0001458,53.216,268.4462,98.035,262.0807,6.1847e-05,6.97e-06,0.0,0 STARLINK-5130,1 53997U 22125AK  23268.28919882  .00000697  00000-0  61847-4 0  9995,2 53997  53.2160 268.4462 0001458  98.0350 262.0807 15.08845164 54340,6917.865,95.437,540.738,538.721,0.0
53997.0,STARLINK-5130,PAYLOAD,2023-09-26 06:47:13,15.08846472,0.0001439,53.2166,263.987,101.1413,258.974,0.00012124,1.642e-05,0.0,0 STARLINK-5130,1 53997U 22125AK  23269.28279524  .00001642  00000-0  12124-3 0  9992,2 53997  53.2166 263.9870 0001439 101.1413 258.9740 15.08846472 54426,6917.861,95.437,540.721,538.73,0.0
53997.0,STARLINK-5130,PAYLOAD,2023-09-26 22:41:05,15.08834076,0.0001745,53.2166,261.0131,138.872,221.2403,-1.2457e-05,-4.86e-06,0.0,0 STARLINK-5130,1 53997U 22125AK  23269.94520589 -.00000486  00000-0 -12457-4 0  9992,2 53997  53.2166 261.0131 0001745 138.8720 221.2403 15.08834076 54597,6917.898,95.438,540.971,538.556,0.0
53997.0,STARLINK-5130,PAYLOAD,2023-09-27 08:13:25,15.08832862,0.000123,53.2163,259.2287,104.7347,255.3781,-3.1623e-05,-7.91e-06,0.0,0 STARLINK-5130,1 53997U 22125AK  23270.34265102 -.00000791  00000-0 -31623-4 0  9990,2 53997  53.2163 259.2287 0001230 104.7347 255.3781 15.08832862 54588,6917.902,95.438,540.618,538.916,0.0
53997.0,STARLINK-5130,PAYLOAD,2023-09-27 16:10:20,15.08832862,0.0001182,53.2164,257.7419,96.8001,263.3126,-3.1689e-05,-7.92e-06,0.0,0 STARLINK-5130,1 53997U 22125AK  23270.67385272 -.00000792  00000-0 -31689-4 0  9990,2 53997  53.2164 257.7419 0001182  96.8001 263.3126 15.08832862 54709,6917.902,95.438,540.585,538.95,0.0
53997.0,STARLINK-5130,PAYLOAD,2023-09-28 08:04:12,15.08838105,0.0001182,53.2167,254.7684,96.8052,263.3074,2.1726e-05,5.8e-07,0.0,0 STARLINK-5130,1 53997U 22125AK  23271.33625105  .00000058  00000-0  21726-4 0  9990,2 53997  53.2167 254.7684 0001182  96.8052 263.3074 15.08838105 54730,6917.886,95.438,540.569,538.933,0.0
53997.0,STARLINK-5130,PAYLOAD,2023-09-29 06:19:35,15.08837738,0.0001127,53.2164,250.6063,97.0439,263.0681,0.00022457,3.288e-05,0.0,0 STARLINK-5130,1 53997U 22125AK  23272.26361019  .00003288  00000-0  22457-3 0  9993,2 53997  53.2164 250.6063 0001127  97.0439 263.0681 15.08837738 54871,6917.887,95.438,540.532,538.973,0.0
53997.0,STARLINK-5130,PAYLOAD,2023-09-30 02:59:36,15.08842346,0.0001303,53.2174,246.7377,84.9654,275.1487,0.00016459,2.333e-05,0.0,0 STARLINK-5130,1 53997U 22125AK  23273.12473007  .00002333  00000-0  16459-3 0  9995,2 53997  53.2174 246.7377 0001303  84.9654 275.1487 15.08842346 55078,6917.873,95.437,540.64,538.837,0.0
53997.0,STARLINK-5130,PAYLOAD,2023-09-30 04:34:59,15.08847519,0.000139,53.2173,246.4357,74.7429,285.3717,0.0001391,1.927e-05,0.0,0 STARLINK-5130,1 53997U 22125AK  23273.19096774  .00001927  00000-0  13910-3 0  9991,2 53997  53.2173 246.4357 0001390  74.7429 285.3717 15.08847519 55015,6917.857,95.437,540.684,538.761,0.0
53997.0,STARLINK-5130,PAYLOAD,2023-09-30 07:45:45,15.0885228,0.0001398,53.218,245.8408,86.0625,274.0527,0.00016633,2.361e-05,0.0,0 STARLINK-5130,1 53997U 22125AK  23273.32344357  .00002361  00000-0  16633-3 0  9997,2 53997  53.2180 245.8408 0001398  86.0625 274.0527 15.08852280 55100,6917.843,95.437,540.675,538.741,0.0
53997.0,STARLINK-5130,PAYLOAD,2023-10-01 02:50:23,15.08849068,0.0001652,53.2182,242.2709,73.4733,286.644,6.3497e-05,7.23e-06,0.0,0 STARLINK-5130,1 53997U 22125AK  23274.11832492  .00000723  00000-0  63497-4 0  9998,2 53997  53.2182 242.2709 0001652  73.4733 286.6440 15.08849068 55226,6917.853,95.437,540.861,538.575,0.0
53997.0,STARLINK-5130,PAYLOAD,2023-10-01 04:25:45,15.08854671,0.0001452,53.2171,241.9777,94.5743,265.5415,0.00011158,1.489e-05,0.0,0 STARLINK-5130,1 53997U 22125AK  23274.18455882  .00001489  00000-0  11158-3 0  9995,2 53997  53.2171 241.9777 0001452  94.5743 265.5415 15.08854671 55233,6917.836,95.437,540.705,538.696,0.0
53997.0,STARLINK-5130,PAYLOAD,2023-10-01 15:33:27,15.08857695,0.0001371,53.2172,239.8972,95.5055,264.6093,8.8043e-05,1.114e-05,0.0,0 STARLINK-5130,1 53997U 22125AK  23274.64823307  .00001114  00000-0  88043-4 0  9990,2 53997  53.2172 239.8972 0001371  95.5055 264.6093 15.08857695 55235,6917.826,95.436,540.64,538.743,0.0
53997.0,STARLINK-5130,PAYLOAD,2023-10-02 02:41:10,15.08839788,0.0001407,53.2178,237.813,99.8129,260.3022,-6.2513e-05,-1.283e-05,0.0,0 STARLINK-5130,1 53997U 22125AK  23275.11193122 -.00001283  00000-0 -62513-4 0  9991,2 53997  53.2178 237.8130 0001407  99.8129 260.3022 15.08839788 55377,6917.881,95.438,540.719,538.773,0.0
53997.0,STARLINK-5130,PAYLOAD,2023-10-02 07:27:20,15.08839738,0.0001374,53.2167,236.9227,106.5299,253.5844,-6.9881e-05,-1.4e-05,0.0,0 STARLINK-5130,1 53997U 22125AK  23275.31065082 -.00001400  00000-0 -69881-4 0  9992,2 53997  53.2167 236.9227 0001374 106.5299 253.5844 15.08839738 55336,6917.881,95.438,540.697,538.796,0.0
53997.0,STARLINK-5130,PAYLOAD,2023-10-03 04:07:20,15.0884762,0.0001218,53.2162,233.0597,90.9568,269.1564,-1.5925e-05,-5.41e-06,0.0,0 STARLINK-5130,1 53997U 22125AK  23276.17176583 -.00000541  00000-0 -15925-4 0  9991,2 53997  53.2162 233.0597 0001218  90.9568 269.1564 15.08847620 55534,6917.857,95.437,540.565,538.88,0.0
53997.0,STARLINK-5130,PAYLOAD,2023-10-03 13:39:39,15.08846959,0.0001157,53.2163,231.2757,89.2072,270.9052,-2.4389e-05,-6.76e-06,0.0,0 STARLINK-5130,1 53997U 22125AK  23276.56920561 -.00000676  00000-0 -24389-4 0  9990,2 53997  53.2163 231.2757 0001157  89.2072 270.9052 15.08846959 55521,6917.859,95.437,540.525,538.924,0.0
53997.0,STARLINK-5130,PAYLOAD,2023-10-04 13:30:27,15.08837464,0.0001771,53.2193,226.8169,103.6358,256.4831,5.011e-05,5.09e-06,0.0,0 STARLINK-5130,1 53997U 22125AK  23277.56281926  .00000509  00000-0  50110-4 0  9990,2 53997  53.2193 226.8169 0001771 103.6358 256.4831 15.08837464 55672,6917.888,95.438,540.978,538.528,0.0
53997.0,STARLINK-5130,PAYLOAD,2023-10-05 02:13:31,15.08848561,0.0001974,53.219,224.4408,123.0221,237.0961,0.00016783,2.384e-05,0.0,0 STARLINK-5130,1 53997U 22125AK  23278.09273076  .00002384  00000-0  16783-3 0  9996,2 53997  53.2190 224.4408 0001974 123.0221 237.0961 15.08848561 55825,6917.854,95.437,541.085,538.354,0.0
53997.0,STARLINK-5130,PAYLOAD,2023-10-05 13:21:14,15.08846035,0.0001561,53.2165,222.3533,83.9091,276.2079,0.00010356,1.361e-05,0.0,0 STARLINK-5130,1 53997U 22125AK  23278.55641210  .00001361  00000-0  10356-3 0  9990,2 53997  53.2165 222.3533 0001561  83.9091 276.2079 15.08846035 55823,6917.862,95.437,540.807,538.647,0.0
53997.0,STARLINK-5130,PAYLOAD,2023-10-06 02:04:19,15.08837397,0.0001625,53.2173,219.9768,90.3795,269.7383,3.6233e-05,2.89e-06,0.0,0 STARLINK-5130,1 53997U 22125AK  23279.08633955  .00000289  00000-0  36233-4 0  9997,2 53997  53.2173 219.9768 0001625  90.3795 269.7383 15.08837397 55970,6917.888,95.438,540.878,538.629,0.0
53997.0,STARLINK-5130,PAYLOAD,2023-10-06 05:15:05,15.0884413,0.000153,53.2161,219.3809,90.3437,269.773,0.00011003,1.464e-05,0.0,0 STARLINK-5130,1 53997U 22125AK  23279.21881488  .00001464  00000-0  11003-3 0  9991,2 53997  53.2161 219.3809 0001530  90.3437 269.7730 15.08844130 55996,6917.868,95.437,540.791,538.674,0.0
53997.0,STARLINK-5130,PAYLOAD,2023-10-06 13:12:01,15.08841292,0.0001558,53.2161,217.8945,81.7018,278.4151,6.5724e-05,7.58e-06,0.0,0 STARLINK-5130,1 53997U 22125AK  23279.55001651  .00000758  00000-0  65724-4 0  9999,2 53997  53.2161 217.8945 0001558  81.7018 278.4151 15.08841292 55977,6917.876,95.437,540.819,538.664,0.0
53997.0,STARLINK-5130,PAYLOAD,2023-10-07 01:55:06,15.08839158,0.0001376,53.216,215.5169,81.5787,278.5361,-6.7531e-05,-1.362e-05,0.0,0 STARLINK-5130,1 53997U 22125AK  23280.07993968 -.00001362  00000-0 -67531-4 0  9991,2 53997  53.2160 215.5169 0001376  81.5787 278.5361 15.08839158 56128,6917.883,95.438,540.7,538.796,0.0
53997.0,STARLINK-5130,PAYLOAD,2023-10-07 05:05:52,15.08851341,0.0001436,53.2167,214.9199,84.0501,276.0654,8.384e-05,1.047e-05,0.0,0 STARLINK-5130,1 53997U 22125AK  23280.21241364  .00001047  00000-0  83840-4 0  9992,2 53997  53.2167 214.9199 0001436  84.0501 276.0654 15.08851341 56148,6917.846,95.437,540.704,538.717,0.0
53997.0,STARLINK-5130,PAYLOAD,2023-10-07 13:02:48,15.08844745,0.0001481,53.2166,213.4337,89.6436,270.4726,-1.1637e-05,-4.73e-06,0.0,0 STARLINK-5130,1 53997U 22125AK  23280.54361723 -.00000473  00000-0 -11637-4 0  9999,2 53997  53.2166 213.4337 0001481  89.6436 270.4726 15.08844745 56129,6917.866,95.437,540.755,538.706,0.0
53997.0,STARLINK-5130,PAYLOAD,2023-10-07 19:24:21,15.0883697,0.0001797,53.2169,212.2447,86.4511,273.6686,8.3853e-05,1.047e-05,0.0,0 STARLINK-5130,1 53997U 22125AK  23280.80858366  .00001047  00000-0  83853-4 0  9997,2 53997  53.2169 212.2447 0001797  86.4511 273.6686 15.08836970 56233,6917.89,95.438,540.998,538.512,0.0
